ONEWEB-0395             
1 50475U 21132G   24182.89295263 -.00000482  00000+0 -13949-2 0  9994
2 50475  87.8965 163.6430 0001812  91.1184 269.0151 13.11416608121835
ONEWEB-0396             
1 50476U 21132H   24182.89325039  .00000043  00000+0  75127-4 0  9999
2 50476  87.9152 118.0499 0002094  84.4165 275.7206 13.18686570127230
ONEWEB-0397             
1 50477U 21132J   24183.21095556 -.00009208  00000+0 -23398-1 0  9999
2 50477  87.9153 117.9880 0002022  88.1621 271.9743 13.18730098128525
ONEWEB-0398             
1 50478U 21132K   24182.93706120  .00000542  00000+0  14937-2 0  9994
2 50478  87.8960 163.6132 0001642  80.4889 279.6424 13.11416679121733
ONEWEB-0399             
1 50479U 21132L   24182.92346424  .00000258  00000+0  69084-3 0  9999
2 50479  87.8963 163.6331 0002368  92.7994 267.3405 13.11420533121723
ONEWEB-0400             
1 50480U 21132M   24182.88692493  .00000000  00000+0 -31552-4 0  9992
2 50480  87.9149 118.0551 0001932  75.3410 284.7936 13.18686756127205
ONEWEB-0401             
1 50481U 21132N   24182.85373007  .00000087  00000+0  18815-3 0  9997
2 50481  87.9146 118.0586 0002386  81.8630 278.2773 13.18685991127208
ONEWEB-0402             
1 50482U 21132P   24182.89484429  .00000077  00000+0  16223-3 0  9993
2 50482  87.9147 118.0480 0002895  82.7616 277.3845 13.18691611127231
